OBJECT_NAME,OBJECT_ID,EPOCH,MEAN_MOTION,ECCENTRICITY,INCLINATION,RA_OF_ASC_NODE,ARG_OF_PERICENTER,MEAN_ANOMALY,EPHEMERIS_TYPE,CLASSIFICATION_TYPE,NORAD_CAT_ID,ELEMENT_SET_NO,REV_AT_EPOCH,BSTAR,MEAN_MOTION_DOT,MEAN_MOTION_DDOT
STARLINK-33884,2025-089V,2026-07-16T14:07:06.922848,15.27590377,.0001329,43.0022,37.0494,269.4700,90.6000,0,U,63770,999,6862,.29018E-3,.7734E-4,0
STARLINK-33841,2025-089W,2026-07-16T14:18:13.186080,15.27585400,.0001321,43.0009,37.1050,263.4172,96.6530,0,U,63771,999,6862,.28769E-3,.7664E-4,0
BIOMASS,2025-090A,2026-07-16T11:46:58.016928,14.67535671,.0001447,98.0750,24.3792,88.8226,271.3144,0,U,63772,999,6498,.49666E-4,.234E-5,0
STARLINK-33769,2025-089X,2026-07-16T14:03:25.605792,15.27568039,.0000607,42.9968,37.0298,268.6989,91.3793,0,U,63773,999,6866,.27972E-3,.7441E-4,0
STARLINK-33914,2025-089Y,2026-07-16T13:45:37.567008,15.27573870,.0001274,43.0000,33.4371,267.4928,92.5778,0,U,63774,999,6871,.58854E-3,.15965E-3,0
STARLINK-33932,2025-091A,2026-07-15T23:25:12.987264,15.27580408,.00015968,43.0040,47.8869,21.2914,338.8004,0,U,63775,999,6856,.44702184E-3,.12059E-3,0
STARLINK-33930,2025-091B,2026-07-15T21:06:51.468768,15.27589358,.0001045,42.9979,48.8884,54.6369,305.4580,0,U,63776,999,6850,.54266E-3,.14705E-3,0
STARLINK-33911,2025-091C,2026-07-16T15:02:35.952000,15.27577184,.0001627,43.0015,37.2065,267.1384,92.9281,0,U,63777,999,6870,.52454E-3,.14199E-3,0
STARLINK-33938,2025-091D,2026-07-16T13:56:39.766848,15.27575148,.000227,43.0033,44.6882,269.8377,90.2214,0,U,63778,999,6870,.45523E-3,.12284E-3,0
STARLINK-33881,2025-091E,2026-07-16T06:41:02.247072,15.27582925,.0000737,42.9997,46.7245,285.1462,74.9308,0,U,63779,999,6856,.17278E-3,.4496E-4,0
STARLINK-33846,2025-091F,2026-07-16T14:17:02.076288,15.27600985,.0002736,43.0038,44.7908,247.4915,112.5647,0,U,63780,999,6866,.11232E-2,.30796E-3,0
STARLINK-33883,2025-091G,2026-07-16T14:11:27.849120,15.27580951,.0001704,42.9995,44.7625,259.0112,101.0548,0,U,63781,999,6861,.45048E-3,.12155E-3,0
STARLINK-33842,2025-091H,2026-07-15T00:11:21.276960,15.27591461,.00021166,43.0017,53.5235,268.1560,91.9049,0,U,63782,999,6846,.57372674E-3,.15565E-3,0
STARLINK-33892,2025-091J,2026-07-15T23:41:51.078336,15.27585430,.00013541,43.0021,47.9727,269.1526,90.9171,0,U,63783,999,6852,.31521616E-3,.8423E-4,0
STARLINK-33933,2025-091K,2026-07-16T05:59:51.823968,15.27583283,.0001378,43.0004,39.5478,276.7469,83.3226,0,U,63784,999,6875,.2915E-3,.7769E-4,0
STARLINK-33923,2025-091M,2026-07-15T23:51:07.189344,15.27575923,.00014857,42.9997,48.0215,8.9679,351.1199,0,U,63786,999,6847,.32550478E-3,.8705E-4,0
STARLINK-33947,2025-091N,2026-07-15T22:48:25.641792,15.27581412,.0000835,42.9963,48.5615,275.1884,84.8872,0,U,63787,999,6851,.43913E-3,.11842E-3,0
STARLINK-33882,2025-091P,2026-07-16T13:47:24.723744,15.27588901,.0000891,43.0018,44.6362,257.6154,102.4598,0,U,63788,999,6860,.32967E-3,.8823E-4,0
STARLINK-33875,2025-091Q,2026-07-16T07:14:07.850400,15.27577319,.0001042,43.0038,46.0258,282.0618,78.0117,0,U,63789,999,6857,.29384E-3,.7832E-4,0
STARLINK-33869,2025-091R,2026-07-16T14:55:40.406016,15.27608651,.0001468,43.0057,44.1279,250.2470,109.8223,0,U,63790,999,6857,.45606E-3,.12319E-3,0
STARLINK-33935,2025-091S,2026-07-16T00:17:01.394880,15.27583200,.00014649,43.0046,48.1596,6.3721,353.7149,0,U,63791,999,6863,.33600414E-3,.8996E-4,0
STARLINK-33916,2025-091T,2026-07-16T00:11:26.847168,15.27588431,.00022872,43.0068,48.1241,267.6464,92.4126,0,U,63792,999,6852,.26008692E-3,.6903E-4,0
STARLINK-33925,2025-091U,2026-07-16T15:01:12.857664,15.27588997,.0001094,43.0014,44.1608,275.1987,84.8740,0,U,63793,999,6873,.35835E-3,.9615E-4,0
STARLINK-33870,2025-091V,2026-07-16T14:51:59.157216,15.27577723,.0002168,43.0025,44.1121,268.0933,91.9670,0,U,63794,999,6862,.31332E-3,.8369E-4,0
STARLINK-33867,2025-091W,2026-07-16T00:00:21.527424,15.27579349,.00013634,42.9999,48.0644,273.4615,86.6081,0,U,63795,999,6852,.29725639E-3,.7926E-4,0
STARLINK-33918,2025-091X,2026-07-16T14:09:37.041120,15.27594444,.0000925,42.9979,44.7521,267.2096,92.8650,0,U,63796,999,6866,.48367E-3,.13077E-3,0
STARLINK-33712,2025-091Y,2026-07-16T14:01:31.962144,15.27584500,.000114,43.0013,48.2367,280.4374,79.6349,0,U,63797,999,6857,.51847E-3,.14034E-3,0
STARLINK-33827,2025-091Z,2026-07-15T23:45:33.069312,15.27590801,.00012888,43.0039,47.9865,274.3314,85.7390,0,U,63798,999,6852,.55389695E-3,.15016E-3,0
STARLINK-33899,2025-091AA,2026-07-15T22:00:17.596512,15.27585437,.00018647,43.0081,48.2974,275.9890,84.0749,0,U,63799,999,6862,.5889401E-3,.15982E-3,0
STARLINK-33900,2025-091AB,2026-07-16T07:19:40.132704,15.27589757,.0003308,43.0035,46.0553,268.2862,91.7611,0,U,63800,999,6868,.30724E-3,.8205E-4,0
STARLINK-33975,2025-091AC,2026-07-16T14:50:06.633312,15.27594420,.000077,42.9991,44.0998,31.1592,328.9305,0,U,63802,999,6873,.30229E-3,.8069E-4,0
STARLINK-33951,2025-091AD,2026-07-16T14:57:30.781152,15.27589011,.0001065,43.0017,44.1373,272.2862,87.7867,0,U,63803,999,6867,.32815E-3,.8781E-4,0
STARLINK-33909,2025-092A,2026-07-16T09:29:38.965632,15.27573699,.0002144,43.0017,166.1073,246.8323,113.2303,0,U,63804,999,6829,.16548E-3,.4293E-4,0
STARLINK-34029,2025-092B,2026-07-16T09:22:16.029984,15.27587888,.0001617,43.0009,166.0673,277.3714,82.6954,0,U,63805,999,6829,.26856E-3,.7137E-4,0
STARLINK-34102,2025-092C,2026-07-16T09:20:25.069920,15.27579684,.0001436,42.9999,166.0570,255.0752,104.9941,0,U,63806,999,6834,.30057E-3,.8018E-4,0
STARLINK-34109,2025-092D,2026-07-16T06:45:11.710656,15.27582131,.0001166,42.9993,166.1031,267.4479,92.6239,0,U,63807,999,6828,.32282E-3,.8632E-4,0
STARLINK-34091,2025-092E,2026-07-16T07:22:12.467136,15.27588793,.0001559,43.0019,166.3022,281.7753,78.2924,0,U,63808,999,6833,.26442E-3,.7023E-4,0
STARLINK-34095,2025-092F,2026-07-16T07:53:40.000416,15.27580715,.0001379,43.0005,166.4706,274.1097,85.9597,0,U,63809,999,6828,.25645E-3,.6801E-4,0
STARLINK-34127,2025-092G,2026-07-16T06:56:18.132864,15.27586002,.0000634,43.0001,166.1631,274.7462,85.3317,0,U,63810,999,6828,.23451E-3,.6198E-4,0
STARLINK-34101,2025-092J,2026-07-16T08:00:50.713920,15.27581642,.0001392,43.0006,165.6340,260.9007,99.1687,0,U,63812,999,6823,.2888E-3,.7694E-4,0
STARLINK-34065,2025-092K,2026-07-16T14:23:42.890208,15.27587729,.0000513,42.9967,160.6859,293.5206,66.5591,0,U,63813,999,6831,.26506E-3,.7041E-4,0
STARLINK-34057,2025-092L,2026-07-16T06:37:48.425088,15.27600919,.0001195,42.9987,166.0619,266.2232,93.8482,0,U,63814,999,6828,.2645E-3,.7028E-4,0
STARLINK-34060,2025-092M,2026-07-16T06:39:38.597184,15.27581065,.0000886,42.9990,166.0748,271.5614,88.5136,0,U,63815,999,6822,.17083E-3,.4442E-4,0
STARLINK-34048,2025-092N,2026-07-15T23:53:37.576320,15.27590906,.00010996,42.9978,168.2593,247.5749,112.4986,0,U,63816,999,6828,.4507762E-3,.12167E-3,0
STARLINK-33959,2025-092P,2026-07-16T06:22:59.895264,15.27586529,.0001231,42.9966,165.9926,267.5106,92.5605,0,U,63817,999,6833,.52906E-3,.14328E-3,0
STARLINK-34058,2025-092Q,2026-07-16T14:23:02.524128,15.27593403,.0000994,43.0002,164.1904,276.3804,83.6934,0,U,63818,999,6838,.40549E-3,.10917E-3,0
STARLINK-34055,2025-092R,2026-07-16T20:00:01.999008,15.37910588,.0007889,42.9996,160.9190,155.6949,132.9023,0,U,63819,999,586,.21943E-2,.84342E-3,0
STARLINK-33794,2025-092S,2026-07-16T07:29:36.492288,15.27585292,.000161,43.0014,166.3386,260.1392,99.9278,0,U,63820,999,6828,.29935E-3,.7986E-4,0
STARLINK-34047,2025-092T,2026-07-16T07:24:02.926080,15.27588628,.0001566,43.0017,166.3080,275.0124,85.0549,0,U,63821,999,6833,.2417E-3,.6396E-4,0
STARLINK-34094,2025-092U,2026-07-16T07:39:32.939136,15.27580408,.0001255,43.0000,162.8990,265.8464,94.2244,0,U,63822,999,6837,.1348E-3,.3449E-4,0
STARLINK-34043,2025-092V,2026-07-16T13:59:39.809760,15.27583436,.0000797,42.9987,160.5732,258.9543,101.1219,0,U,63823,999,6837,.2698E-3,.717E-4,0
STARLINK-34025,2025-092W,2026-07-16T08:04:33.454848,15.27567555,.0001122,42.9991,165.6536,282.1090,77.9635,0,U,63824,999,6823,.31193E-3,.8328E-4,0
STARLINK-33874,2025-092X,2026-07-16T07:16:40.705824,15.27575190,.0001306,43.0027,166.2724,286.2647,73.8061,0,U,63825,999,6833,.32657E-3,.8734E-4,0
STARLINK-33781,2025-092Y,2026-07-16T06:08:23.967744,15.27589759,.0001637,43.0003,166.7709,274.0338,86.0326,0,U,63826,999,6832,.46591E-3,.12585E-3,0
STARLINK-33891,2025-092Z,2026-07-16T00:01:01.462368,15.27592067,.00014035,42.9999,168.2933,263.7594,96.3098,0,U,63827,999,6817,.38998519E-3,.10489E-3,0
STARLINK-33903,2025-092AA,2026-07-16T21:16:39.385344,15.27579806,.000096,43.0024,162.9027,265.7471,94.3271,0,U,63828,999,6842,.43054E-3,.11604E-3,0
STARLINK-33889,2025-092AB,2026-07-16T06:48:53.658432,15.27580658,.0001152,42.9999,166.1222,265.3830,94.6890,0,U,63829,999,6822,.1779E-3,.4637E-4,0
STARLINK-33984,2025-092AC,2026-07-16T05:25:51.048192,15.27557102,.00024869,43.0034,166.5432,287.3564,72.7015,0,U,63830,999,6827,-.12430951E-3,-.3679E-4,0
STARLINK-33940,2025-092AD,2026-07-15T15:33:16.148448,15.27577827,.00015042,43.0021,169.9593,266.3748,93.6931,0,U,63831,999,6823,.53319634E-3,.14438E-3,0
STARLINK-33978,2025-092AE,2026-07-16T08:26:45.468960,15.27584505,.0000335,42.9970,165.7718,184.6771,175.4078,0,U,63832,999,6834,.30721E-3,.8203E-4,0
HERMES-4,2025-052BP,2026-07-16T15:30:55.363968,15.31027713,.0005131,97.3833,91.3237,97.3277,262.8547,0,U,63833,999,7445,.25935E-3,.7701E-4,0
HERMES-5,2025-052BQ,2026-07-16T05:55:25.235904,15.29177359,.0005964,97.3937,91.4975,61.0592,299.1246,0,U,63834,999,7439,.24346E-3,.6822E-4,0
HERMES-3,2025-052BR,2026-07-16T10:15:47.727072,15.35040661,.0007083,97.3836,92.9316,42.9638,317.2157,0,U,63835,999,7454,.286E-3,.9652E-4,0
STARLINK-34018,2025-093A,2026-07-16T15:37:19.400736,15.27586778,.0001623,43.0008,69.7297,264.3261,95.7405,0,U,63836,999,6769,.34671E-3,.9293E-4,0
STARLINK-34053,2025-093B,2026-07-15T23:52:03.347616,15.27571626,.00028692,43.0036,73.3982,246.8120,113.2430,0,U,63837,999,6753,.31025363E-3,.8283E-4,0
